{
  "type": "FeatureCollection",
  "features": [
    {
      "type": "Feature",
      "properties": {
        "norad_id": 34884,
        "name": "COSMOS 2251 DEB",
        "group": "cosmos-2251-debris",
        "lat": 14.506358660894914,
        "lon": 81.34055856929861,
        "alt_km": 602.3066552073478,
        "timestamp": "2025-12-02T13:52:17.656737+00:00",
        "meta_object_name": "COSMOS 2251 DEB",
        "meta_object_id": "1993-036ACX",
        "meta_epoch": "2025-12-02T07:37:20.766144",
        "meta_mean_motion": 14.89205326,
        "meta_eccentricity": 0.00031011,
        "meta_inclination": 74.0174,
        "meta_ra_of_asc_node": 77.6085,
        "meta_arg_of_pericenter": 144.0856,
        "meta_mean_anomaly": 275.8007,
        "meta_ephemeris_type": 0,
        "meta_classification_type": "U",
        "meta_norad_cat_id": 34884,
        "meta_element_set_no": 999,
        "meta_rev_at_epoch": 87650,
        "meta_bstar": 0.003495651,
        "meta_mean_motion_dot": 0.00033188,
        "meta_mean_motion_ddot": 0,
        "tle_line1": "1 34884U 93036ACX 25336.31760146  .00033188  00000+0  34957-2 0  9997",
        "tle_line2": "2 34884  74.0174  77.6085 0003101 144.0856 275.8007 14.89205326876503"
      },
      "geometry": {
        "type": "Point",
        "coordinates": [
          81.34055856929861,
          14.506358660894914
        ]
      }
    },
    {
      "type": "Feature",
      "properties": {
        "norad_id": 34885,
        "name": "COSMOS 2251 DEB",
        "group": "cosmos-2251-debris",
        "lat": -35.81754762877403,
        "lon": 34.07999824802188,
        "alt_km": 723.2844917353559,
        "timestamp": "2025-12-02T13:52:17.656747+00:00",
        "meta_object_name": "COSMOS 2251 DEB",
        "meta_object_id": "1993-036ACY",
        "meta_epoch": "2025-12-02T01:58:55.498656",
        "meta_mean_motion": 14.5141511,
        "meta_eccentricity": 0.00154629,
        "meta_inclination": 74.0312,
        "meta_ra_of_asc_node": 203.0861,
        "meta_arg_of_pericenter": 288.9275,
        "meta_mean_anomaly": 221.2045,
        "meta_ephemeris_type": 0,
        "meta_classification_type": "U",
        "meta_norad_cat_id": 34885,
        "meta_element_set_no": 999,
        "meta_rev_at_epoch": 87324,
        "meta_bstar": 0.00073065963,
        "meta_mean_motion_dot": 2.893e-05,
        "meta_mean_motion_ddot": 0,
        "tle_line1": "1 34885U 93036ACY 25336.08258679  .00002893  00000+0  73066-3 0  9999",
        "tle_line2": "2 34885  74.0312 203.0861 0015462 288.9275 221.2045 14.51415110873249"
      },
      "geometry": {
        "type": "Point",
        "coordinates": [
          34.07999824802188,
          -35.81754762877403
        ]
      }
    },
    {
      "type": "Feature",
      "properties": {
        "norad_id": 34886,
        "name": "COSMOS 2251 DEB",
        "group": "cosmos-2251-debris",
        "lat": 28.03894343043066,
        "lon": -148.19354052539273,
        "alt_km": 433.0887468112551,
        "timestamp": "2025-12-02T13:52:17.656757+00:00",
        "meta_object_name": "COSMOS 2251 DEB",
        "meta_object_id": "1993-036ACZ",
        "meta_epoch": "2025-12-01T00:14:36.382848",
        "meta_mean_motion": 15.36489128,
        "meta_eccentricity": 0.00312375,
        "meta_inclination": 73.9522,
        "meta_ra_of_asc_node": 206.3743,
        "meta_arg_of_pericenter": 33.5009,
        "meta_mean_anomaly": 326.8163,
        "meta_ephemeris_type": 0,
        "meta_classification_type": "U",
        "meta_norad_cat_id": 34886,
        "meta_element_set_no": 999,
        "meta_rev_at_epoch": 62818,
        "meta_bstar": 0.0018065183,
        "meta_mean_motion_dot": 0.00065913,
        "meta_mean_motion_ddot": 0,
        "tle_line1": "1 34886U 93036ACZ 25335.01014332  .00065913  00000+0  18065-2 0  9997",
        "tle_line2": "2 34886  73.9522 206.3743 0031237  33.5009 326.8163 15.36489128628181"
      },
      "geometry": {
        "type": "Point",
        "coordinates": [
          -148.19354052539273,
          28.03894343043066
        ]
      }
    },
    {
      "type": "Feature",
      "properties": {
        "norad_id": 34907,
        "name": "COSMOS 2251 DEB",
        "group": "cosmos-2251-debris",
        "lat": -60.732395081062876,
        "lon": -78.69853987328727,
        "alt_km": 469.9327797287142,
        "timestamp": "2025-12-02T13:52:17.656767+00:00",
        "meta_object_name": "COSMOS 2251 DEB",
        "meta_object_id": "1993-036ADC",
        "meta_epoch": "2025-12-01T13:20:50.450208",
        "meta_mean_motion": 15.34989488,
        "meta_eccentricity": 0.00161182,
        "meta_inclination": 73.9763,
        "meta_ra_of_asc_node": 72.6494,
        "meta_arg_of_pericenter": 358.1871,
        "meta_mean_anomaly": 1.9272,
        "meta_ephemeris_type": 0,
        "meta_classification_type": "U",
        "meta_norad_cat_id": 34907,
        "meta_element_set_no": 999,
        "meta_rev_at_epoch": 87801,
        "meta_bstar": 0.0077028741,
        "meta_mean_motion_dot": 0.00272089,
        "meta_mean_motion_ddot": 0,
        "tle_line1": "1 34907U 93036ADC 25335.55613947  .00272089  00000+0  77029-2 0  9996",
        "tle_line2": "2 34907  73.9763  72.6494 0016118 358.1871   1.9272 15.34989488878016"
      },
      "geometry": {
        "type": "Point",
        "coordinates": [
          -78.69853987328727,
          -60.732395081062876
        ]
      }
    },
    {
      "type": "Feature",
      "properties": {
        "norad_id": 34908,
        "name": "COSMOS 2251 DEB",
        "group": "cosmos-2251-debris",
        "lat": 67.48861728712005,
        "lon": 85.9275028227298,
        "alt_km": 732.4878792978507,
        "timestamp": "2025-12-02T13:52:17.656777+00:00",
        "meta_object_name": "COSMOS 2251 DEB",
        "meta_object_id": "1993-036ADD",
        "meta_epoch": "2025-12-01T23:18:58.685184",
        "meta_mean_motion": 14.37345471,
        "meta_eccentricity": 0.0039851,
        "meta_inclination": 74.0598,
        "meta_ra_of_asc_node": 43.443,
        "meta_arg_of_pericenter": 63.2193,
        "meta_mean_anomaly": 113.7386,
        "meta_ephemeris_type": 0,
        "meta_classification_type": "U",
        "meta_norad_cat_id": 34908,
        "meta_element_set_no": 999,
        "meta_rev_at_epoch": 87124,
        "meta_bstar": 0.00060872017,
        "meta_mean_motion_dot": 1.808e-05,
        "meta_mean_motion_ddot": 0,
        "tle_line1": "1 34908U 93036ADD 25335.97151256  .00001808  00000+0  60872-3 0  9991",
        "tle_line2": "2 34908  74.0598  43.4430 0039851  63.2193 113.7386 14.37345471871247"
      },
      "geometry": {
        "type": "Point",
        "coordinates": [
          85.9275028227298,
          67.48861728712005
        ]
      }
    },
    {
      "type": "Feature",
      "properties": {
        "norad_id": 34909,
        "name": "COSMOS 2251 DEB",
        "group": "cosmos-2251-debris",
        "lat": 8.9397466892958,
        "lon": -86.03850244517726,
        "alt_km": 611.4073582568508,
        "timestamp": "2025-12-02T13:52:17.656788+00:00",
        "meta_object_name": "COSMOS 2251 DEB",
        "meta_object_id": "1993-036ADE",
        "meta_epoch": "2025-12-02T01:43:14.134368",
        "meta_mean_motion": 14.77668146,
        "meta_eccentricity": 0.00852643,
        "meta_inclination": 74.0135,
        "meta_ra_of_asc_node": 97.5409,
        "meta_arg_of_pericenter": 235.6442,
        "meta_mean_anomaly": 123.6647,
        "meta_ephemeris_type": 0,
        "meta_classification_type": "U",
        "meta_norad_cat_id": 34909,
        "meta_element_set_no": 999,
        "meta_rev_at_epoch": 66694,
        "meta_bstar": 0.00079428546,
        "meta_mean_motion_dot": 6.01e-05,
        "meta_mean_motion_ddot": 0,
        "tle_line1": "1 34909U 93036ADE 25336.07169137  .00006010  00000+0  79429-3 0  9999",
        "tle_line2": "2 34909  74.0135  97.5409 0085264 235.6442 123.6647 14.77668146666942"
      },
      "geometry": {
        "type": "Point",
        "coordinates": [
          -86.03850244517726,
          8.9397466892958
        ]
      }
    },
    {
      "type": "Feature",
      "properties": {
        "norad_id": 34910,
        "name": "COSMOS 2251 DEB",
        "group": "cosmos-2251-debris",
        "lat": -25.09728309431933,
        "lon": -54.75237269131518,
        "alt_km": 820.851157686101,
        "timestamp": "2025-12-02T13:52:17.656798+00:00",
        "meta_object_name": "COSMOS 2251 DEB",
        "meta_object_id": "1993-036ADF",
        "meta_epoch": "2025-11-30T20:20:30.072192",
        "meta_mean_motion": 13.37637623,
        "meta_eccentricity": 0.04682276,
        "meta_inclination": 73.8734,
        "meta_ra_of_asc_node": 120.1896,
        "meta_arg_of_pericenter": 241.0425,
        "meta_mean_anomaly": 278.0333,
        "meta_ephemeris_type": 0,
        "meta_classification_type": "U",
        "meta_norad_cat_id": 34910,
        "meta_element_set_no": 999,
        "meta_rev_at_epoch": 81365,
        "meta_bstar": 0.0010248313,
        "meta_mean_motion_dot": 9.9e-06,
        "meta_mean_motion_ddot": 0,
        "tle_line1": "1 34910U 93036ADF 25334.84757028  .00000990  00000+0  10248-2 0  9990",
        "tle_line2": "2 34910  73.8734 120.1896 0468227 241.0425 278.0333 13.37637623813655"
      },
      "geometry": {
        "type": "Point",
        "coordinates": [
          -54.75237269131518,
          -25.09728309431933
        ]
      }
    }
  ]
}